NOAA 15                 
1 25338U 98030A   24346.10801851  .00000376  00000+0  17282-3 0  9992
2 25338  98.5535   9.4328 0010580 161.9483 198.2076 14.26822487382662
DMSP 5D-3 F16 (USA 172) 
1 28054U 03048A   24346.18097522  .00000364  00000+0  21447-3 0  9990
2 28054  99.0201 354.3352 0006403 273.7392 163.6911 14.14225000 91290
NOAA 18                 
1 28654U 05018A   24346.19375709  .00000383  00000+0  22689-3 0  9992
2 28654  98.8613  61.5863 0013237 281.7779  78.1908 14.13449116  8261
METEOSAT-9 (MSG-2)      
1 28912U 05049B   24331.84702219  .00000144  00000+0  00000+0 0  9993
2 28912   8.0635  59.4636 0001814 203.9464 153.5423  1.00276594  1313
EWS-G1 (GOES 13)        
1 29155U 06018A   24345.82767087 -.00000050  00000+0  00000+0 0  9994
2 29155   3.0874  83.1645 0064213 256.9273 138.9975  0.98828619 37781
DMSP 5D-3 F17 (USA 191) 
1 29522U 06050A   24346.15843563  .00000395  00000+0  22758-3 0  9998
2 29522  98.7421 353.0938 0009815 189.8357 170.2626 14.14690095934210
FENGYUN 3A              
1 32958U 08026A   24346.13466199  .00000364  00000+0  19363-3 0  9998
2 32958  98.6274 288.3299 0007658 285.1534  74.8795 14.19305558857056
NOAA 19                 
1 33591U 09005A   24346.17123117  .00000369  00000+0  22138-3 0  9993
2 33591  99.0250  43.6563 0014308 150.2389 209.9599 14.13226214816621
GOES 14                 
1 35491U 09033A   24345.64304969 -.00000050  00000+0  00000+0 0  9990
2 35491   0.2446  91.5001 0003000 127.8647 343.5255  1.00272576  1046
DMSP 5D-3 F18 (USA 210) 
1 35951U 09057A   24346.20312002  .00000553  00000+0  31192-3 0  9994
2 35951  98.8377 319.4038 0011763  27.5448 332.6346 14.14419251781389
EWS-G2 (GOES 15)        
1 36411U 10008A   24345.81976473  .00000054  00000+0  00000+0 0  9994
2 36411   0.1413 271.9480 0006591 339.6900 184.9647  1.00269047 54094
COMS 1                  
1 36744U 10032A   24345.83297058 -.00000329  00000+0  00000+0 0  9993
2 36744   3.3980  82.6182 0000951 169.2310 256.2434  1.00271005 45543
FENGYUN 3B              
1 37214U 10059A   24346.25234094  .00000236  00000+0  14612-3 0  9997
2 37214  99.0377  16.6817 0021409 314.0667 115.2751 14.14639112729288
SUOMI NPP               
1 37849U 11061A   24346.17043626  .00000229  00000+0  12930-3 0  9998
2 37849  98.7405 281.6080 0002227  93.3644 266.7787 14.19515585679978
METEOSAT-10 (MSG-3)     
1 38552U 12035B   24345.87907953  .00000008  00000+0  00000+0 0  9996
2 38552   3.3695  61.8350 0001328 216.7848 118.0074  1.00268348 45309
METOP-B                 
1 38771U 12049A   24346.12692418  .00000300  00000+0  15627-3 0  9990
2 38771  98.6053  39.1752 0000764  87.6687 272.4579 14.21608019634680
INSAT-3D                
1 39216U 13038B   24345.90470931 -.00000323  00000+0  00000+0 0  9994
2 39216   0.4918  90.4545 0002338 169.4093 275.4659  1.00268347 41532
FENGYUN 3C              
1 39260U 13052A   24346.20919472  .00000255  00000+0  14896-3 0  9996
2 39260  98.4398 336.5418 0011175 170.5906 189.5481 14.16363058580383
METEOR-M 2              
1 40069U 14037A   24346.11166846  .00000337  00000+0  17426-3 0  9991
2 40069  98.4513 332.5908 0005326 193.3430 166.7607 14.21160845540756
HIMAWARI-8              
1 40267U 14060A   24345.53729882 -.00000259  00000+0  00000+0 0  9997
2 40267   0.0158  61.2279 0000947 202.1463 150.4745  1.00270235 37310
FENGYUN 2G              
1 40367U 14090A   24345.82723646 -.00000285  00000+0  00000+0 0  9994
2 40367   4.2295  79.5078 0001372 159.4727 238.0101  1.00280958 36498
METEOSAT-11 (MSG-4)     
1 40732U 15034A   24345.80942595  .00000078  00000+0  00000+0 0  9992
2 40732   1.8175  71.5974 0001913 161.4089 147.8493  1.00264915  1663
ELEKTRO-L 2             
1 41105U 15074A   24346.09055291 -.00000102  00000+0  00000+0 0  9990
2 41105   5.2923  77.3209 0004114 191.1050 190.0131  1.00270771 32970
INSAT-3DR               
1 41752U 16054A   24345.39345958 -.00000061  00000+0  00000+0 0  9995
2 41752   0.0912  96.3644 0014155 173.0476  25.8588  1.00270573 30261
HIMAWARI-9              
1 41836U 16064A   24345.68799124 -.00000258  00000+0  00000+0 0  9997
2 41836   0.0402 131.6313 0000807 127.4138 209.3011  1.00271326 29750
GOES 16                 
1 41866U 16071A   24345.86404920 -.00000232  00000+0  00000+0 0  9997
2 41866   0.0378 243.2777 0001313  64.5620   8.1057  1.00272089 29559
FENGYUN 4A              
1 41882U 16077A   24345.89610813 -.00000177  00000+0  00000+0 0  9992
2 41882   0.9077  85.8329 0009354 338.0598  64.9498  1.00262278 29380
CYGFM05                 
1 41884U 16078A   24346.11845606  .00017386  00000+0  51973-3 0  9999
2 41884  34.9631 256.0242 0010428   2.5160 357.5608 15.33642545443297
CYGFM04                 
1 41885U 16078B   24346.12170755  .00018017  00000+0  51948-3 0  9991
2 41885  34.9372 238.0653 0009014  19.0980 341.0074 15.34783236443466
CYGFM02                 
1 41886U 16078C   24345.90307048  .00017273  00000+0  48664-3 0  9998
2 41886  34.9455 241.1373 0011441  10.3302 349.7649 15.35486216443363
CYGFM01                 
1 41887U 16078D   24345.86692180  .00016561  00000+0  49954-3 0  9990
2 41887  34.9468 261.6959 0011323 344.3979  15.6388 15.33354228443087
CYGFM08                 
1 41888U 16078E   24346.09166640  .00016912  00000+0  49063-3 0  9995
2 41888  34.9488 246.6776 0012017  12.3111 347.7898 15.34569488443342
CYGFM07                 
1 41890U 16078G   24346.09197402  .00017810  00000+0  51013-3 0  9994
2 41890  34.9496 237.5314 0009183  25.5818 334.5353 15.34990585443460
CYGFM03                 
1 41891U 16078H   24345.81498254  .00018170  00000+0  52320-3 0  9995
2 41891  34.9453 240.6581 0008999   5.8060 354.2761 15.34823402443251
FENGYUN 3D              
1 43010U 17072A   24346.16646601  .00000266  00000+0  14788-3 0  9998
2 43010  98.9370 302.0804 0001535 151.9883 208.1375 14.19517903366520
NOAA 20 (JPSS-1)        
1 43013U 17073A   24346.11600139  .00000220  00000+0  12480-3 0  9990
2 43013  98.7246 281.1860 0002306  71.3269 288.8158 14.19584704366002
GOES 17                 
1 43226U 18022A   24346.07248175 -.00000075  00000+0  00000+0 0  9994
2 43226   0.0100 171.4487 0003546  85.9711 104.2764  1.00270818 24895
FENGYUN 2H              
1 43491U 18050A   24345.89471802 -.00000113  00000+0  00000+0 0  9996
2 43491   1.6009  85.5890 0001374 161.9112 233.9726  1.00272742 23899
METOP-C                 
1 43689U 18087A   24346.16894241  .00000299  00000+0  15672-3 0  9991
2 43689  98.7019  43.1689 0000559 355.8389   4.2783 14.21491404316269
GEO-KOMPSAT-2A          
1 43823U 18100A   24344.83204760 -.00000327  00000+0  00000+0 0  9998
2 43823   0.0527 130.2896 0000481 359.3617  17.2284  1.00270881 22108
METEOR-M2 2             
1 44387U 19038A   24346.14917764  .00000325  00000+0  16092-3 0  9995
2 44387  98.8520 316.3019 0001659 133.4576 226.6740 14.24087063282579
ARKTIKA-M 1             
1 47719U 21016A   24341.22533358  .00000148  00000+0  00000+0 0  9994
2 47719  63.1351 131.6510 7009744 268.4762  17.4646  2.00604882 27593
FENGYUN 3E              
1 49008U 21062A   24346.16356162  .00000101  00000+0  68359-4 0  9997
2 49008  98.7384 345.1315 0000776 206.8520 153.2616 14.19822336178107
GOES 18                 
1 51850U 22021A   24345.99472367  .00000113  00000+0  00000+0 0  9994
2 51850   0.0213 154.0668 0000586 132.5893  14.6444  1.00269825 10251
NOAA 21 (JPSS-2)        
1 54234U 22150A   24345.87204787  .00000254  00000+0  14091-3 0  9997
2 54234  98.7098 281.5336 0001598  30.6234 329.5035 14.19566938108042
METEOSAT-12 (MTG-I1)    
1 54743U 22170C   24345.66459606  .00000010  00000+0  00000+0 0  9994
2 54743   0.6430  44.6932 0001165 196.8778  77.3081  1.00274822  7420
TIANMU-1 03             
1 55973U 23039A   24346.12209816  .00015613  00000+0  55944-3 0  9999
2 55973  97.4817 136.5752 0003682 278.3442  81.7380 15.28824290 95827
TIANMU-1 04             
1 55974U 23039B   24346.15748275  .00015307  00000+0  54592-3 0  9998
2 55974  97.4743 136.0237 0004624 273.7328  86.3383 15.28978500 95826
TIANMU-1 05             
1 55975U 23039C   24346.15505426  .00015338  00000+0  54978-3 0  9990
2 55975  97.4790 136.4285 0003425 301.7764  58.3142 15.28817142 95815
TIANMU-1 06             
1 55976U 23039D   24346.11331793  .00015840  00000+0  56315-3 0  9996
2 55976  97.4804 136.5952 0003911 297.8781  62.2062 15.29077104 95810
METEOR-M2 3             
1 57166U 23091A   24346.12077370  .00000062  00000+0  46070-4 0  9994
2 57166  98.6902  38.9997 0003656 352.7083   7.4042 14.23959320 75809
TIANMU-1 07             
1 57399U 23101A   24346.09981764  .00010125  00000+0  45494-3 0  9990
2 57399  97.3408  38.5172 0003181 299.9442  60.1478 15.21331451 77280
TIANMU-1 08             
1 57400U 23101B   24346.13341743  .00008931  00000+0  40128-3 0  9996
2 57400  97.3396  38.4011 0005386 302.0252  58.0460 15.21359255 77283
TIANMU-1 09             
1 57401U 23101C   24346.11731479  .00009676  00000+0  43493-3 0  9999
2 57401  97.3350  38.1213 0005178 298.5117  61.5597 15.21322299 77281
TIANMU-1 10             
1 57402U 23101D   24346.15037306  .00009799  00000+0  44012-3 0  9996
2 57402  97.3433  38.6134 0007175 294.7461  65.3028 15.21337146 77288
FENGYUN 3F              
1 57490U 23111A   24346.17631556  .00000194  00000+0  11212-3 0  9999
2 57490  98.7515  53.5145 0000451  43.3583 316.7629 14.19954646 70382
ARKTIKA-M 2             
1 58584U 23198A   24344.94955720  .00000161  00000+0  00000+0 0  9997
2 58584  63.2374 215.3268 6914505 269.4863  17.9258  2.00618044  7208
TIANMU-1 11             
1 58645U 23205A   24346.12243554  .00008260  00000+0  39951-3 0  9990
2 58645  97.3901   6.9347 0011710 141.2777 218.9299 15.18791939 53334
TIANMU-1 12             
1 58646U 23205B   24346.13946014  .00009133  00000+0  44209-3 0  9995
2 58646  97.3887   6.8453 0009850 133.4056 226.8000 15.18751483 53327
TIANMU-1 13             
1 58647U 23205C   24346.10635173  .00008495  00000+0  41118-3 0  9990
2 58647  97.3915   6.8756 0010645 116.6407 243.5919 15.18765592 53313
TIANMU-1 14             
1 58648U 23205D   24346.09032796  .00008928  00000+0  43203-3 0  9999
2 58648  97.3841   6.5521 0011140 120.3033 239.9305 15.18757526 53313
TIANMU-1 19             
1 58660U 23208A   24346.13687149  .00011763  00000+0  55587-3 0  9998
2 58660  97.4198  94.7059 0007318 106.7888 253.4150 15.19537294 52997
TIANMU-1 20             
1 58661U 23208B   24346.15062806  .00010859  00000+0  49518-3 0  9990
2 58661  97.4132  94.8109 0010066 116.7392 243.4875 15.20766972 53025
TIANMU-1 21             
1 58662U 23208C   24346.14881380  .00012309  00000+0  53908-3 0  9996
2 58662  97.4171  95.4470 0009605 116.2200 244.0025 15.22125459 53055
TIANMU-1 22             
1 58663U 23208D   24346.13553670  .00010931  00000+0  51361-3 0  9994
2 58663  97.4190  94.7957 0005647 126.3596 233.8161 15.19762448 53004
TIANMU-1 15             
1 58700U 24004A   24346.15170792  .00008994  00000+0  43477-3 0  9998
2 58700  97.4596 164.4736 0009504 142.2378 217.9524 15.18807837 51596
TIANMU-1 16             
1 58701U 24004B   24346.13364074  .00009528  00000+0  46138-3 0  9996
2 58701  97.4524 164.1708 0009533 145.1209 215.0652 15.18731176 51594
TIANMU-1 17             
1 58702U 24004C   24346.11883509  .00010134  00000+0  48965-3 0  9999
2 58702  97.4566 164.3828 0007952 139.9665 220.2157 15.18803741 51581
TIANMU-1 18             
1 58703U 24004D   24346.16748923  .00009475  00000+0  45813-3 0  9990
2 58703  97.4585 164.5417 0007822 132.1075 228.0825 15.18796127 51593
INSAT-3DS               
1 58990U 24033A   24345.89532618 -.00000140  00000+0  00000+0 0  9997
2 58990   0.0168 301.5134 0001760 320.3765 222.6229  1.00269342 41529
METEOR-M2 4             
1 59051U 24039A   24346.13556190  .00000128  00000+0  76805-4 0  9997
2 59051  98.6243 303.8945 0006716 340.6146  19.4776 14.22312196 40649
GOES 19                 
1 60133U 24119A   24345.78961719 -.00000166  00000+0  00000+0 0  9998
2 60133   0.0127 222.1027 0000859  84.9895 327.6979  1.00271883  1415
